MEAN_MOTION;ECCENTRICITY;INCLINATION;RA_OF_ASC_NODE;ARG_OF_PERICENTER;MEAN_ANOMALY;BSTAR;MEAN_MOTION_DOT;MEAN_MOTION_DDOT;TYPE
13.75271214;0.0036452;82.9405;289.3754;74.3453;40.0488;1.4895E-5;3.0E-7;0;Amateur
13.75271262;0.0036446;82.9404;288.8442;72.4256;347.461;2.2578E-5;3.7E-7;0;Amateur
13.75271276;0.0036438;82.9404;288.6208;71.6119;39.3425;2.803E-5;4.3E-7;0;Amateur
13.75271306;0.0036424;82.9403;288.088;69.6816;357.288;2.7948E-5;4.2E-7;0;Amateur
13.75271342;0.0036404;82.9402;287.4478;67.3631;311.8667;3.0382E-5;4.5E-7;0;Amateur
13.75271339;0.0036392;82.9402;287.1023;66.1097;99.1596;2.9231E-5;4.4E-7;0;Amateur
13.7527136;0.003638;82.9402;286.7373;64.7856;16.2046;2.9497E-5;4.4E-7;0;Amateur
13.75271364;0.0036375;82.9401;286.6253;64.3801;44.5038;2.662E-5;4.1E-7;0;Amateur
13.75271399;0.0036355;82.9401;286.0371;62.249;11.6586;2.6128E-5;4.1E-7;0;Amateur
13.75271401;0.0036337;82.9401;285.7053;61.0337;67.4521;2.2399E-5;3.7E-7;0;Amateur
13.7527144;0.0036303;82.94;285.0597;58.6969;58.4411;1.4268E-5;2.9E-7;0;Amateur
13.75271448;0.0036265;82.9399;284.1976;55.5614;55.2586;5.6817E-6;2.1E-7;0;Amateur
13.75271446;0.0036254;82.9398;283.9881;54.7949;13.7617;8.9129E-7;1.6E-7;0;Amateur
13.7527145;0.0036222;82.9398;283.4412;52.7941;65.8134;-1.3068E-6;1.4E-7;0;Amateur
13.75271471;0.0036213;82.9397;283.2361;52.0492;355.5516;-3.2505E-6;1.2E-7;0;Amateur
13.75271471;0.0036182;82.9397;282.7383;50.2275;80.0874;-3.7869E-6;1.2E-7;0;Amateur
13.75271487;0.0036154;82.9397;282.264;48.5044;6.7708;-2.711E-6;1.3E-7;0;Amateur
13.75271466;0.0036139;82.9397;281.9859;47.4777;64.0874;-3.0949E-6;1.2E-7;0;Amateur
13.75271463;0.0036108;82.9396;281.5093;45.7415;6.3572;-4.8801E-6;1.1E-7;0;Amateur
13.75271455;0.0036093;82.9396;281.231;44.7082;64.5537;-2.1683E-6;1.3E-7;0;Amateur
13.75271469;0.003606;82.9396;280.754;42.9617;9.8579;-1.5152E-6;1.4E-7;0;Amateur
13.75271528;0.0036042;82.9396;280.4752;41.939;71.4468;1.8541E-5;3.3E-7;0;Amateur
13.7527154;0.003601;82.9396;279.998;40.1964;17.8743;1.886E-5;3.4E-7;0;Amateur
13.75271531;0.0036004;82.9396;279.9422;39.9931;29.9113;1.7771E-5;3.2E-7;0;Amateur
13.75271518;0.003599;82.9396;279.7206;39.1758;69.7303;1.763E-5;3.2E-7;0;Amateur
13.75271497;0.0035952;82.9396;279.2421;37.4257;24.5465;1.1898E-5;2.7E-7;0;Amateur
13.75271497;0.0035932;82.9397;279.0192;36.6042;72.7762;1.5689E-5;3.0E-7;0;Amateur
13.75271551;0.0035862;82.9397;278.2631;33.8275;81.1637;2.1357E-5;3.6E-7;0;Amateur
13.75271563;0.0035851;82.9397;278.2016;33.6043;132.2796;2.1947E-5;3.6E-7;0;Amateur
13.75271537;0.0035789;82.9397;277.5091;31.0623;76.1489;1.5091E-5;3.0E-7;0;Amateur
13.75271601;0.0035777;82.9397;277.0859;29.4871;21.9396;2.1702E-5;3.6E-7;0;Amateur
13.75271605;0.0035755;82.9396;276.7472;28.2305;123.0342;2.0834E-5;3.5E-7;0;Amateur
13.75271645;0.0035723;82.9396;276.3305;26.6875;25.9893;1.7789E-5;3.2E-7;0;Amateur
13.75271662;0.0035701;82.9397;276.0525;25.6529;82.0187;2.0466E-5;3.5E-7;0;Amateur
13.75271672;0.0035643;82.9397;275.2974;22.8493;84.3484;1.1891E-5;2.7E-7;0;Amateur
13.7527168;0.0035641;82.9397;275.242;22.6422;93.7068;1.1146E-5;2.6E-7;0;Amateur
13.75271712;0.0035591;82.9397;274.5421;20.0221;87.4697;7.4349E-6;2.2E-7;0;Amateur
13.75271702;0.0035548;82.9397;274.1188;18.4547;34.0005;-2.1583E-6;1.3E-7;0;Amateur
13.75271697;0.0035544;82.9397;274.0624;18.2408;50.4677;-3.4993E-6;1.2E-7;0;Amateur
13.75271725;0.0035512;82.9397;273.7855;17.2189;98.9374;1.669E-8;1.5E-7;0;Amateur
13.75271751;0.0035464;82.9398;273.3627;15.6681;43.0966;-1.8821E-6;1.3E-7;0;Amateur
13.75271759;0.0035453;82.9398;273.3071;15.4559;54.3993;-1.2586E-6;1.4E-7;0;Amateur
13.75271756;0.0035422;82.9398;273.0856;14.633;92.6719;-6.2694E-8;1.5E-7;0;Amateur
13.75271774;0.0035365;82.9399;272.3837;12.0133;100.037;1.5033E-6;1.7E-7;0;Amateur
13.75271781;0.0035361;82.9399;272.3293;11.8096;102.9487;1.3439E-6;1.6E-7;0;Amateur
13.75271844;0.0035303;82.94;271.629;9.1929;99.1822;1.0809E-5;2.6E-7;0;Amateur
13.75271851;0.0035299;82.94;271.5748;8.9884;101.626;1.0815E-5;2.6E-7;0;Amateur
13.75271881;0.0035223;82.9401;270.8736;6.3682;103.3044;1.5886E-5;3.0E-7;0;Amateur
13.75271886;0.0035218;82.9401;270.8187;6.159;110.3943;1.584E-5;3.0E-7;0;Amateur
13.7527194;0.0035165;82.9402;270.1186;3.53;105.504;2.6223E-5;4.0E-7;0;Amateur
13.75271944;0.0035158;82.9402;270.0642;3.3166;109.0533;2.5662E-5;4.0E-7;0;Amateur
13.75272002;0.0035085;82.9403;269.3551;0.6478;164.0274;3.3908E-5;4.8E-7;0;Amateur
13.75272005;0.003508;82.9403;269.3079;0.4679;119.4097;3.3216E-5;4.7E-7;0;Amateur
13.75272062;0.0035017;82.9405;268.6077;357.8219;114.9577;3.8155E-5;5.2E-7;0;Amateur
13.75272063;0.0035007;82.9405;268.5527;357.6116;121.9049;3.7437E-5;5.1E-7;0;Amateur
13.75272097;0.003494;82.9406;267.8527;354.9561;116.4117;3.623E-5;5.0E-7;0;Amateur
13.75272128;0.0034907;82.9407;267.4285;353.3564;69.8867;3.3681E-5;4.7E-7;0;Amateur
13.75272148;0.0034882;82.9407;267.152;352.3021;116.0421;3.4418E-5;4.8E-7;0;Amateur
13.75272183;0.0034831;82.9408;266.6727;350.4878;77.2179;2.7598E-5;4.2E-7;0;Amateur
13.75272216;0.0034806;82.9409;266.3952;349.4348;130.1951;2.9508E-5;4.3E-7;0;Amateur
13.75272251;0.0034745;82.941;265.6414;346.5752;124.2793;2.1051E-5;3.5E-7;0;Amateur
13.75272308;0.003468;82.9412;264.8853;343.694;133.4391;1.4463E-5;2.9E-7;0;Amateur
13.7527235;0.0034619;82.9413;264.2395;341.2324;127.4187;1.1772E-5;2.6E-7;0;Amateur
13.75272349;0.0034609;82.9413;264.13;340.809;138.3499;8.6717E-6;2.3E-7;0;Amateur
13.75272345;0.003455;82.9414;263.4299;338.1372;134.3615;2.6108E-6;1.7E-7;0;Amateur
13.75272379;0.0034507;82.9415;263.006;336.5001;85.3707;3.3293E-6;1.8E-7;0;Amateur
13.7527241;0.0034495;82.9415;262.6744;335.2323;140.6359;7.4663E-6;2.2E-7;0;Amateur
13.7527244;0.0034458;82.9416;262.2503;333.596;93.0944;8.4695E-6;2.3E-7;0;Amateur
13.75272461;0.0034438;82.9417;261.9743;332.5344;136.5654;1.4012E-5;2.8E-7;0;Amateur
13.75272487;0.0034397;82.9418;261.4949;330.6918;98.6768;1.7997E-5;3.2E-7;0;Amateur
13.75272507;0.0034378;82.9419;261.2188;329.6228;142.8705;2.2036E-5;3.6E-7;0;Amateur
13.75272529;0.0034345;82.942;260.795;327.9984;93.7256;2.4545E-5;3.9E-7;0;Amateur
13.75272549;0.0034327;82.942;260.5183;326.9211;141.9334;2.99E-5;4.4E-7;0;Amateur
13.75272553;0.0034325;82.942;260.4624;326.704;155.1838;2.9015E-5;4.3E-7;0;Amateur
13.7527259;0.0034291;82.9421;260.039;325.0697;103.3136;3.16E-5;4.5E-7;0;Amateur
13.7527265;0.0034244;82.9423;259.394;322.5726;92.1967;3.8932E-5;5.2E-7;0;Amateur
13.75272651;0.0034235;82.9423;259.2833;322.1473;111.4302;3.7929E-5;5.1E-7;0;Amateur
13.75272657;0.0034232;82.9424;259.0073;321.0984;155.3096;3.7805E-5;5.1E-7;0;Amateur
13.75272683;0.0034198;82.9425;258.5289;319.2624;111.4216;3.6452E-5;5.0E-7;0;Amateur
13.75272724;0.0034192;82.9426;258.2526;318.2059;157.1921;3.9289E-5;5.3E-7;0;Amateur
13.75272761;0.0034153;82.9427;257.7759;316.353;101.7746;3.6664E-5;5.0E-7;0;Amateur
13.75272783;0.0034139;82.9428;257.4972;315.2657;163.3149;3.5194E-5;4.9E-7;0;Amateur
13.75272812;0.0034081;82.9429;256.7976;312.5413;158.016;2.812E-5;4.2E-7;0;Amateur
13.75272863;0.003403;82.9431;256.0424;309.6075;162.8501;2.1753E-5;3.6E-7;0;Amateur
13.75272914;0.0033986;82.9432;255.2865;306.6549;172.9809;1.527E-5;3.0E-7;0;Amateur
13.75272914;0.0033986;82.9432;255.2865;306.6549;172.9809;1.527E-5;3.0E-7;0;Amateur
13.75272956;0.0033949;82.9434;254.5867;303.9206;168.7323;1.2514E-5;2.7E-7;0;Amateur
13.75272967;0.0033924;82.9434;254.163;302.2642;119.3633;8.3919E-6;2.3E-7;0;Amateur
13.75272981;0.0033911;82.9435;253.8313;300.9692;175.1908;8.2531E-6;2.3E-7;0;Amateur
13.75273012;0.0033892;82.9436;253.4077;299.3086;125.8293;7.5959E-6;2.2E-7;0;Amateur
13.75273024;0.0033886;82.9436;253.0765;298.0101;178.4384;8.736E-6;2.3E-7;0;Amateur
13.75273035;0.0033865;82.9437;252.6521;296.3513;134.1743;7.6501E-6;2.2E-7;0;Amateur
13.7527305;0.0033857;82.9437;252.3182;295.0488;204.8601;1.1018E-5;2.5E-7;0;Amateur
13.75273052;0.0033837;82.9438;251.8974;293.4022;136.3413;1.2523E-5;2.7E-7;0;Amateur
13.7527308;0.0033831;82.9439;251.6207;292.3198;184.9455;1.7115E-5;3.1E-7;0;Amateur
13.75273141;0.0033813;82.944;250.8662;289.3734;186.2374;2.5974E-5;4.0E-7;0;Amateur
13.75273199;0.0033799;82.9442;250.1078;286.4;214.0761;3.2977E-5;4.7E-7;0;Amateur
13.75273199;0.0033799;82.9442;250.1078;286.4;214.0761;3.2977E-5;4.7E-7;0;Amateur
13.75273317;0.0033773;82.9444;248.9874;282.0047;140.6183;4.1433E-5;5.5E-7;0;Amateur
13.75273333;0.0033773;82.9445;248.7647;281.1327;188.782;4.4587E-5;5.8E-7;0;Amateur
13.75273407;0.0033769;82.9446;248.2319;279.0272;149.5958;4.2729E-5;5.6E-7;0;Amateur
13.7527344;0.003377;82.9446;247.898;277.7225;220.4494;4.316E-5;5.6E-7;0;Amateur
13.75273466;0.0033763;82.9447;247.477;276.0632;153.7468;3.893E-5;5.2E-7;0;Amateur
13.75273502;0.0033764;82.9447;247.1431;274.7508;224.9299;3.7113E-5;5.1E-7;0;Amateur
13.75273539;0.0033758;82.9448;246.7259;273.1212;133.4385;3.3917E-5;4.7E-7;0;Amateur
13.75273556;0.0033766;82.9448;246.4457;272.0206;205.9676;3.0218E-5;4.4E-7;0;Amateur
13.75273597;0.0033768;82.9449;245.6906;269.0518;212.241;1.9777E-5;3.4E-7;0;Amateur
13.75273621;0.003377;82.9449;244.9851;266.2844;246.7006;1.1753E-5;2.6E-7;0;Amateur
13.75273646;0.0033772;82.945;244.5159;264.4469;142.8183;9.8968E-6;2.4E-7;0;Amateur
13.75273671;0.0033779;82.945;244.1792;263.1306;232.8628;9.7734E-6;2.4E-7;0;Amateur
13.75273696;0.0033789;82.945;243.481;260.3878;218.8873;9.3848E-6;2.4E-7;0;Amateur
13.7527371;0.0033803;82.9451;242.7234;257.4171;242.411;1.0597E-5;2.5E-7;0;Amateur
13.7527372;0.0033807;82.9451;242.4655;256.4053;165.7836;1.3909E-5;2.8E-7;0;Amateur
13.75273744;0.0033833;82.9452;241.97;254.4693;237.8247;1.7146E-5;3.1E-7;0;Amateur
13.75273748;0.0033841;82.9452;241.6027;253.0234;172.7596;1.6781E-5;3.1E-7;0;Amateur
13.75273744;0.0033857;82.9453;241.2715;251.7255;226.4853;1.893E-5;3.3E-7;0;Amateur
13.75273752;0.003387;82.9453;240.8476;250.0613;179.6479;1.9766E-5;3.4E-7;0;Amateur
13.75273779;0.0033884;82.9453;240.5137;248.755;251.1097;2.4463E-5;3.8E-7;0;Amateur
13.75273811;0.0033916;82.9453;239.8166;246.0291;230.0729;2.8115E-5;4.2E-7;0;Amateur
